MOLNIYA 2-9             
1 07276U 74026A   22225.11396894  .00000105  00000+0  00000+0 0  9999
2 07276  64.2811 219.2400 6459018 280.6528  17.2636  2.45097628250609
MOLNIYA 2-10            
1 07376U 74056A   22226.07430221 -.00001137  00000+0  00000+0 0  9999
2 07376  64.1965  88.8387 6736913 286.2740  13.6160  2.01155249351513
MOLNIYA 1-S             
1 07392U 74060A   22226.52769250 -.00000046  00000+0  00000+0 0  9997
2 07392   4.9738 282.0663 0011854 210.5991  90.7838  1.00199195120101
MOLNIYA 1-29            
1 07780U 75036A   22226.00100817  .00000075  00000+0 -15535-1 0  9996
2 07780  63.4168 208.8013 6891658 288.6787  11.9433  2.00628986346772
MOLNIYA 2-14            
1 08195U 75081A   22224.09965605  .00001248  00000+0  00000+0 0  9999
2 08195  63.3842 181.9921 6796279 292.9084  11.4317  2.02069568344019
MOLNIYA 1-32            
1 08601U 76006A   22223.01584387 -.00000454  00000+0  13691-1 0  9995
2 08601  63.4807 289.9943 7246804 283.7900  11.2993  2.00089793 53752
MOLNIYA 1-36            
1 09880U 77021A   22226.17051717  .00000416  00000+0  00000+0 0  9994
2 09880  63.4854 260.9805 7172464 289.6857  10.2483  2.00902287230523
MOLNIYA 3-8             
1 10455U 77105A   22226.38080673 -.00000296  00000+0  92387-3 0  9993
2 10455  63.3886 349.0578 7369819 282.2541  10.8813  2.00845915328305
MOLNIYA 1-40            
1 10925U 78055A   22220.57898581  .00000473  00000+0  00000+0 0  9993
2 10925  63.3505  40.7684 7262166 280.6655  11.7642  2.00693996323724
MOLNIYA 3-10            
1 11057U 78095A   22226.41475322 -.00000302  00000+0 -91381-3 0  9996
2 11057  63.1733  17.8927 5792404 310.7556  11.7298  4.09853907386102
MOLNIYA 3-13            
1 11896U 80063A   22225.79262618  .00000352  00000+0  00000+0 0  9994
2 11896  62.6973 130.1608 7102765 276.3379  14.0907  2.00656518308245
MOLNIYA 1-49            
1 12156U 81009A   22226.04657841  .00001239  00000+0 -18500-2 0  9993
2 12156  61.6980 156.8237 7269452 263.1015  17.2699  2.05695024222678
MOLNIYA 1-52            
1 13012U 81123A   22226.12846083 -.00000616  00000+0 -66731-2 0  9997
2 13012  61.7398 270.5101 7240671 255.5462  20.8309  2.00404058297738
MOLNIYA 1-53            
1 13070U 82015A   22225.91801439 -.00001059  00000+0  40473-2 0  9990
2 13070  62.6367 207.1101 7035229 282.8165  12.6158  2.00787311296419
MOLNIYA 3-20            
1 13875U 83015A   22225.42160345  .00001305  00000+0  28822-2 0  9991
2 13875  62.7128 343.7750 7401990 258.5510  18.0134  2.00464669224852
MOLNIYA 1-56            
1 13890U 83019A   22224.70726840 -.00000468  00000+0  58402-3 0  9998
2 13890  62.9961   9.1172 7448708 264.5279  15.3012  1.99983749287726
MOLNIYA 1-63            
1 15429U 84124A   22223.21800243  .00001081  00000+0  00000+0 0  9999
2 15429  63.7489 162.5821 6640024 259.3817 210.6322  2.00791834275859
MOLNIYA 3-24            
1 15738U 85040A   22224.88383743 -.00000070  00000+0  00000+0 0  9993
2 15738  63.6682  72.2861 6814941 247.2877  30.6887  2.55627202305318
MOLNIYA 3-27            
1 16393U 85117A   22224.72453872 -.00000083  00000+0  00000+0 0  9994
2 16393  64.3958  74.2118 6990026 248.1515  27.9451  2.12396920275376
MOLNIYA 1-69            
1 17078U 86089A   22222.69834299  .00000026  00000+0  00000+0 0  9990
2 17078  63.9927 181.4612 6646847 257.8261  25.8416  2.00680988261912
MOLNIYA 3-31            
1 17328U 87008A   22225.78256437  .00000441  00000+0  00000+0 0  9996
2 17328  63.6952 121.9409 7046685 253.8011  23.8236  2.00602193257018
MOLNIYA 1-71            
1 18946U 88017A   22225.72830528 -.00000213  00000+0  00000+0 0  9995
2 18946  63.4112 116.0016 7160110 256.4336  21.2424  2.00650332252204
MOLNIYA 1-75            
1 19807U 89014A   22221.95366246  .00000128  00000+0  00000+0 0  9996
2 19807  64.0556 278.7327 6854059 266.8378  19.5377  2.00581458245079
MOLNIYA 1-80            
1 21118U 91012A   22226.12233434  .00000353  00000+0  00000+0 0  9991
2 21118  65.1923 326.6439 6787836 276.9056  16.3458  2.05232665232166
MOLNIYA 3-40            
1 21196U 91022A   22222.52209771  .00001076  00000+0  00000+0 0  9998
2 21196  65.1084 320.6382 6818971 273.7438  17.2165  2.02994642230783
MOLNIYA 1-81            
1 21426U 91043A   22226.35551049 -.00000028  00000+0  00000+0 0  9997
2 21426  64.1107 336.7069 7097444 266.6994  17.5227  2.00633175228325
MOLNIYA 3-41            
1 21706U 91065A   22226.14605470  .00000570  00000+0  00000+0 0  9998
2 21706  64.1009 159.7968 6845061 255.3909  25.1236  2.04341362228046
MOLNIYA 3-42            
1 22178U 92067A   22225.95593307  .00000163  00000+0  00000+0 0  9996
2 22178  64.6764 209.8825 6427297 266.1649  23.5979  2.20435680 81329
MOLNIYA 1-86            
1 22671U 93035A   22226.46417706  .00000296  00000+0  42873-3 0  9990
2 22671  63.0889 203.2294 4860243   7.9370 357.5620  5.62685447355568
MOLNIYA 1-87            
1 22949U 93079A   22223.76180689  .00000796  00000+0  00000+0 0  9990
2 22949  63.9843  85.9429 6878776 284.0977  13.3262  2.02870603 76057
MOLNIYA 1-88            
1 23420U 94081A   22226.19310729  .00000082  00000+0  00000+0 0  9997
2 23420  64.2799 182.9607 5802509 282.0227  21.6669  3.34498071115630
MOLNIYA 3-47            
1 23642U 95042A   22221.25576715  .00001184  00000+0  00000+0 0  9996
2 23642  64.0938  68.0201 6929248 284.3788  12.9078  2.01948208198083
MOLNIYA 1-90            
1 24960U 97054A   22226.14384621  .00000049  00000+0 -36678-2 0  9994
2 24960  63.6401 149.5737 6112588 298.3465  13.7891  3.18689293209848
MOLNIYA 1-91            
1 25485U 98054A   22226.31316478  .00000149  00000+0  22925-2 0  9992
2 25485  63.0289 141.1917 6774262 291.8972 336.7109  2.36444729179748
MOLNIYA 3-50            
1 25847U 99036A   22226.33448383  .00000243  00000+0  66726-3 0  9991
2 25847  63.2055 325.4507 7379309 282.0822  10.8968  2.00652975169270
